{"type":"FeatureCollection","features":[{"type":"Feature","properties":{"name":"Temuco","comuna":"Temuco","cut":"09101","metro":"Temuco-Padre Las Casas","es_bbox":false},"geometry":{"type":"Polygon","coordinates":[[[-72.5782,-38.6216],[-72.5795,-38.627],[-72.5694,-38.637],[-72.5497,-38.643],[-72.5286,-38.6353],[-72.5246,-38.6452],[-72.508,-38.6349],[-72.4695,-38.6451],[-72.4843,-38.6626],[-72.5136,-38.6748],[-72.5107,-38.6844],[-72.5162,-38.6962],[-72.5381,-38.7085],[-72.5424,-38.7182],[-72.5496,-38.7216],[-72.5498,-38.7315],[-72.5676,-38.7394],[-72.5807,-38.7488],[-72.5929,-38.7511],[-72.6188,-38.7624],[-72.639,-38.7625],[-72.6452,-38.7653],[-72.6642,-38.7587],[-72.6707,-38.7676],[-72.6827,-38.7733],[-72.6886,-38.7661],[-72.716,-38.7664],[-72.7262,-38.7757],[-72.7323,-38.7741],[-72.7492,-38.7773],[-72.7617,-38.7765],[-72.7686,-38.7794],[-72.7892,-38.7817],[-72.8034,-38.7793],[-72.8123,-38.7823],[-72.8235,-38.776],[-72.8172,-38.7535],[-72.8121,-38.742],[-72.8183,-38.7363],[-72.8131,-38.7236],[-72.8162,-38.714],[-72.8004,-38.7086],[-72.7938,-38.7006],[-72.792,-38.6909],[-72.7781,-38.6744],[-72.7742,-38.6749],[-72.7564,-38.6537],[-72.7615,-38.6396],[-72.7692,-38.6319],[-72.7698,-38.6229],[-72.76790181818183,-38.62],[-72.5798424778761,-38.62],[-72.5782,-38.6216]]]}},{"type":"Feature","properties":{"name":"Padre Las Casas","comuna":"Padre Las Casas","cut":"09112","metro":null,"es_bbox":false},"geometry":{"type":"Polygon","coordinates":[[[-72.8123,-38.7823],[-72.8034,-38.7793],[-72.7892,-38.7817],[-72.7686,-38.7794],[-72.7617,-38.7765],[-72.7492,-38.7773],[-72.7323,-38.7741],[-72.7262,-38.7757],[-72.716,-38.7664],[-72.6886,-38.7661],[-72.6827,-38.7733],[-72.6707,-38.7676],[-72.6642,-38.7587],[-72.6452,-38.7653],[-72.639,-38.7625],[-72.6188,-38.7624],[-72.5929,-38.7511],[-72.5807,-38.7488],[-72.5676,-38.7394],[-72.5498,-38.7315],[-72.5496,-38.7216],[-72.5424,-38.7182],[-72.5381,-38.7085],[-72.5162,-38.6962],[-72.5107,-38.6844],[-72.4912,-38.6894],[-72.4842,-38.688],[-72.4721,-38.6962],[-72.4564,-38.7033],[-72.4719,-38.7265],[-72.4545,-38.722],[-72.4343,-38.7203],[-72.4271,-38.7264],[-72.38,-38.73733744769874],[-72.38,-38.73792291666666],[-72.3889,-38.7433],[-72.3863,-38.7515],[-72.4153,-38.7683],[-72.4123,-38.7765],[-72.4196,-38.7813],[-72.4163,-38.7939],[-72.4227,-38.8024],[-72.4311,-38.8035],[-72.4467,-38.8216],[-72.4298,-38.8195],[-72.4301,-38.8305],[-72.4346,-38.8422],[-72.4135,-38.8553],[-72.4011,-38.8556],[-72.3959,-38.8496],[-72.3838,-38.8434],[-72.38,-38.84560645161291],[-72.38,-38.893990476190474],[-72.3851,-38.8914],[-72.3965,-38.8918],[-72.4208,-38.8825],[-72.4501,-38.8806],[-72.4531,-38.8842],[-72.4691,-38.8824],[-72.4902,-38.8769],[-72.5096,-38.8772],[-72.5155,-38.8654],[-72.535,-38.8653],[-72.5527,-38.8716],[-72.564,-38.8726],[-72.5702,-38.8685],[-72.5891,-38.8627],[-72.6025,-38.8626],[-72.6032,-38.8524],[-72.6111,-38.8548],[-72.6238,-38.8507],[-72.6283,-38.836],[-72.6351,-38.8366],[-72.6484,-38.8289],[-72.6573,-38.8381],[-72.6686,-38.8312],[-72.6873,-38.8375],[-72.7025,-38.8314],[-72.7108,-38.8361],[-72.7126,-38.8456],[-72.7397,-38.8358],[-72.7558,-38.8364],[-72.7741,-38.8418],[-72.7875,-38.8381],[-72.7902,-38.8331],[-72.8049,-38.8328],[-72.813,-38.8262],[-72.8141,-38.821],[-72.8289,-38.8116],[-72.8407,-38.8083],[-72.8235,-38.776],[-72.8123,-38.7823]]]}}]}